[{"OBJECT_NAME":"GLOBALSTAR M076","OBJECT_ID":"2010-054C","EPOCH":"2026-03-09T06:25:57.027360","MEAN_MOTION":12.62270465,"ECCENTRICITY":3.719e-5,"INCLINATION":52.0041,"RA_OF_ASC_NODE":52.3127,"ARG_OF_PERICENTER":130.7037,"MEAN_ANOMALY":332.6435,"EPHEMERIS_TYPE":0,"CLASSIFICATION_TYPE":"U","NORAD_CAT_ID":37190,"ELEMENT_SET_NO":999,"REV_AT_EPOCH":71025,"BSTAR":-2.8769281e-5,"MEAN_MOTION_DOT":-1.09e-6,"MEAN_MOTION_DDOT":0},{"OBJECT_NAME":"COSMOS 2213","OBJECT_ID":"1992-068C","EPOCH":"2026-03-09T10:17:35.721888","MEAN_MOTION":12.62609099,"ECCENTRICITY":0.00033064,"INCLINATION":82.5979,"RA_OF_ASC_NODE":50.519,"ARG_OF_PERICENTER":19.1129,"MEAN_ANOMALY":97.9291,"EPHEMERIS_TYPE":0,"CLASSIFICATION_TYPE":"U","NORAD_CAT_ID":22184,"ELEMENT_SET_NO":999,"REV_AT_EPOCH":53836,"BSTAR":2.6619891e-5,"MEAN_MOTION_DOT":1.5e-7,"MEAN_MOTION_DDOT":0}]
